#cP2021 12 14  0  0  0.00000000      96 ORBIT IGb14 HLM  IGS
## 2188 172800.00000000   900.00000000 59562 0.0000000000000
+   32   G01G02G03G04G05G06G07G08G09G10G11G12G13G14G15G16G17
+        G18G19G20G21G22G23G24G25G26G27G28G29G30G31G32  0  0
+          0  0  0  0  0  0  0  0  0  0  0  0  0  0  0  0  0
+          0  0  0  0  0  0  0  0  0  0  0  0  0  0  0  0  0
+          0  0  0  0  0  0  0  0  0  0  0  0  0  0  0  0  0
++         2  2  2  2  2  2  2  2  2  2  0  2  2  3  2  2  2
++         3  2  2  2  2  3  2  2  2  2  2  2  2  2  2  0  0
++         0  0  0  0  0  0  0  0  0  0  0  0  0  0  0  0  0
++         0  0  0  0  0  0  0  0  0  0  0  0  0  0  0  0  0
++         0  0  0  0  0  0  0  0  0  0  0  0  0  0  0  0  0
%c G  cc GPS ccc cccc cccc cccc cccc ccccc ccccc ccccc ccccc
%c cc cc ccc ccc cccc cccc cccc cccc ccccc ccccc ccccc ccccc
%f  1.2500000  1.025000000  0.00000000000  0.000000000000000
%f  0.0000000  0.000000000  0.00000000000  0.000000000000000
%i    0    0    0    0      0      0      0      0         0
%i    0    0    0    0      0      0      0      0         0
/* RAPID ORBIT COMBINATION FROM WEIGHTED AVERAGE OF:        
/* cod emr esa gfz jpl ngs sio usn whu                      
/* REFERENCED TO IGS TIME (IGST) AND TO WEIGHTED MEAN POLE: 
/* PCV:IGS14_2186 OL/AL:FES2004  NONE     Y  ORB:CMB CLK:CMB
*  2021 12 14 18  0  0.00000000
PG01 -21862.074862 -13383.631093   7325.124021    484.140890  6  7  4  79       
PG02  11571.581641  20308.932589  13178.959336   -645.646164  4  7  7 107       
PG03 -13625.920228  -6953.248297  21619.241015    -41.656540  7  5  1  89       
PG04 -23340.430658  -2284.632579  12542.130091   -199.029836 10  6  6 109       
PG05   6972.603918  21024.132477 -14707.591345    -64.396812  2  7  2  79       
PG06  -3444.184420  15742.268973  21167.949405    142.732039  6  9  6  90       
PG07 -19025.785410    468.237549 -18350.531771    290.787897  5  2  4  92       
PG08 -15236.330211  -9185.882501 -19838.563774    -48.069244  9  6  6 134       
PG09 -25434.951559   7412.687771   2039.837146   -360.431538  4  6  5  81       
PG10  11598.405398 -21257.889035 -10429.973646   -268.674395  6  4  6  97       
PG11   8543.297029  21464.192997  13115.744023 999999.999999
PG12  12190.994555   9986.914047  21144.521977   -140.733659  4  7  7  93       
PG13   7019.694175  13877.758489 -21701.954207    229.459130  4  6  6 120       
PG14 -12859.673692  20669.227705 -10553.826345    -55.129815  6 10  5 118       
PG15  16801.502465   8092.490258 -19427.107710    -99.177025  1  6  5 117       
PG16  -2209.932939 -23035.542391 -12855.715755   -440.288437  5  8  8 113       
PG17 -19982.994188  13407.690807  11716.680334    547.434357  5  4  3  83       
PG18  18071.092769  -1404.241313 -19452.582764    279.523061  6  6  8 108       
PG19 -13081.262282  14807.660670  17403.355164     92.173959  5  8  4 100       
PG20   1915.950583  26254.769893  -4482.658787    517.647684  5  7  7  68       
PG21 -21034.931487 -16673.886420   -764.201463    153.723376  6  6  6 104       
PG22 -11899.225448 -15552.908286  18206.841743   -441.480723  3  6  4  82       
PG23  15102.562639 -11316.360461 -18671.310338     21.913673  6  9  5 121       
PG24  22209.940431  14728.559245   2408.433021    274.617611  5  4  4 102       
PG25  15616.462182  -3078.089363  20947.270171    255.708421  5  5  4  73       
PG26   4645.399348 -25966.005819    858.176084    164.956757  6  9  7 110       
PG27  -4127.154216 -14442.228587 -22081.597708   -230.989261  9  9  6 123       
PG28  -9380.720857  24789.922399  -2501.094631    443.167413  7  6  7 124       
PG29  25831.201080  -2514.315671   5754.885309   -453.946625  2  7  5  69       
PG30 -11869.798066  10385.418945 -21311.632319   -499.272199  3  4  2 110       
PG31   1969.439839 -17314.813485  19789.249056   -155.021237  5  4  6 121       
PG32  16077.534126 -15844.309593  13966.109724    -35.130676  7  5  2 104       
*  2021 12 14 18 15  0.00000000
PG01 -22296.990471 -13957.631514   4545.114635    484.131708  6  7  4  84       
PG02  10218.858464  19560.912248  15367.114086   -645.647246  4  7  7 105       
PG03 -13163.036303  -9365.350058  20998.589031    -41.667645  6  5  2 104       
PG04 -21920.434784  -2958.182857  14760.002155   -199.028681  9  7  6 115       
PG05   6564.241519  22520.156957 -12474.343717    -64.398345  3  7  3  87       
PG06  -5343.177209  14206.749829  21856.531692    142.741025  6  9  7  85       
PG07 -20505.988890   -973.579120 -16741.000895    290.791828  5  1  3 102       
PG08 -13104.826821 -10096.583045 -20862.601801    -48.071019  9  7  6 140       
PG09 -25158.644681   7014.022582   4842.879966   -360.430925  4  6  5  73       
PG10  11579.523968 -19881.959055 -12876.443067   -268.682442  6  4  6 100       
PG11   7226.172524  20494.027086  15278.622834 999999.999999
PG12  11546.832680  12318.277557  20280.929287   -140.739138  4  7  7  96       
PG13   4619.464949  14428.560468 -21972.986147    229.463895  4  6  6 111       
PG14 -12803.743841  19303.198748 -12944.338561    -55.135376  6  9  4  99       
PG15  14888.846610   9197.372033 -20459.857539    -99.174735     6  5 116       
PG16  -1664.115462 -24244.568168 -10394.365076   -440.293816  4  8  8 154       
PG17 -21115.475685  13575.567496   9165.359717    547.439294  5  3  2  85       
PG18  19608.036493     81.570279 -17966.076870    279.517150  5  7  8 100       
PG19 -14989.285628  15132.356862  15494.759148     92.177845  5  8  4  99       
PG20   1621.969889  26600.542558  -1710.831734    517.647312  6  6  7  57       
PG21 -20648.685435 -16668.055418  -3568.586040    153.724008  6  6  6 105       
PG22 -11600.463705 -17496.606548  16563.997695   -441.472820  4  6  5  92       
PG23  14898.781871  -9112.458773 -20002.545155     21.909978  7  8  5 123       
PG24  22155.786175  15056.101982   -367.013703    274.619363  5  5  4 106       
PG25  15261.871964   -615.999035  21438.756633    255.713669  5  5  4  88       
PG26   4948.012566 -25657.579133   3673.039468    164.959946  6  9  7 111       
PG27  -1797.913882 -15264.988919 -21803.398045   -230.993343  9  9  6 126       
PG28  -9454.820190  24247.714902  -5317.419275    443.160323  7  7  8 132       
PG29  25095.165109  -2116.672503   8493.942294   -453.951726  2  7  5  81       
PG30 -13691.054552   8761.444577 -20968.662642   -499.274768  3  4  2 100       
PG31   3817.438354 -15848.059338  20761.515405   -155.023278  5  5  5 121       
PG32  17518.987977 -16148.732381  11658.764411    -35.135564  7  5  3 111       
*  2021 12 14 18 30  0.00000000
PG01 -22510.400635 -14312.185514   1688.021077    484.122564  6  7  4  84       
PG02   8638.941822  18765.059876  17300.503473   -645.648120  4  7  7 101       
PG03 -12840.719188 -11706.799330  20013.894412    -41.678742  6  5  3  87       
PG04 -20317.472396  -3792.346346  16724.756579   -199.027543  9  7  6 105       
PG05   6251.769887  23772.720660 -10026.612817    -64.399643  4  7  4  98       
PG06  -7370.483380  12747.017717  22171.141273    142.749929  7  9  7  71       
PG07 -21894.597373  -2214.176316 -14841.048396    290.796053  5  3  3 107       
PG08 -10935.404084 -11160.714333 -21530.286415    -48.072299  9  7  5  72       
PG09 -24619.057162   6471.084988   7562.590105   -360.430320  3  7  6  64       
PG10  11604.733407 -18241.794861 -15096.399722   -268.690489  6  5  6  84       
PG11   5683.114490  19447.056399  17178.689531 999999.999999
PG12  11050.166043  14561.270548  19061.542307   -140.744100  5  7  8  85       
PG13   2241.707534  15110.480207 -21871.396270    229.469012  3  6  6 117       
PG14 -12778.026148  17681.283751 -15111.446294    -55.140933  7  7  4 102       
PG15  12948.442898  10442.912932 -21154.567659    -99.172074     5  4 120       
PG16  -1238.502882 -25197.821749  -7751.532372   -440.299052  5  8  7 124       
PG17 -21962.178252  13702.269938   6459.202383    547.444117  4  2  2  88       
PG18  21075.066136   1368.906880 -16171.590685    279.511256  4  8  8 112       
PG19 -16652.182486  15489.509545  13312.756694     92.182462  4  7  4  86       
PG20   1333.316211  26648.035965   1089.969074    517.647007  6  6  7  86       
PG21 -19993.988071 -16521.937295  -6312.946756    153.724685  6  7  7  94       
PG22 -11398.934941 -19253.047832  14641.825462   -441.464567  4  7  5  85       
PG23  14800.982398  -6770.828715 -20989.349757     21.906315  7  8  5 134       
PG24  21857.067347  15218.771620  -3136.328170    274.621099  4  5  4 109       
PG25  15029.585779   1892.936106  21551.344420    255.718850  5  4  5  83       
PG26   5245.286132 -25048.077657   6423.430883    164.963177  5  8  7 110       
PG27    438.999070 -16193.957410 -21154.918164   -230.997398  8  9  6 129       
PG28  -9498.050604  23399.862758  -8042.201442    443.153296  7  7  7 126       
PG29  24097.075220  -1577.762151  11087.099515   -453.956351  2  7  5  23       
PG30 -15539.670158   7264.903281 -20263.693596   -499.277349  2  5  3 112       
PG31   5804.925738 -14423.418925  21369.877266   -155.024880  5  6  5 119       
PG32  18695.219343 -16415.332034   9150.003992    -35.140485  7  5  4 103       
EOF
